{"fetched_at":"2026-03-29T16:36:15Z","count":15609,"tles":[{"name":"STARLINK-30453","line1":"1 57910U 23146V   26087.72270353 -.00000585  00000+0 -12113-4 0  9991","line2":"2 57910  43.0020 203.5987 0001837 270.8565  89.2075 15.26737027138945","category":"Starlink"}]}